[{"OBJECT_NAME":"YAOGAN-43 01J","OBJECT_ID":"2024-148J","EPOCH":"2026-03-09T23:54:35.791776","MEAN_MOTION":15.33667219,"ECCENTRICITY":0.00056275,"INCLINATION":34.9924,"RA_OF_ASC_NODE":49.1806,"ARG_OF_PERICENTER":63.4278,"MEAN_ANOMALY":296.7016,"EPHEMERIS_TYPE":0,"CLASSIFICATION_TYPE":"U","NORAD_CAT_ID":60466,"ELEMENT_SET_NO":999,"REV_AT_EPOCH":8718,"BSTAR":0.00053111003,"MEAN_MOTION_DOT":0.0001776,"MEAN_MOTION_DDOT":0},{"OBJECT_NAME":"KUIPER-00178","OBJECT_ID":"2026-030D","EPOCH":"2026-03-09T15:15:28.534752","MEAN_MOTION":15.35571325,"ECCENTRICITY":0.0006451,"INCLINATION":51.8828,"RA_OF_ASC_NODE":219.4634,"ARG_OF_PERICENTER":46.2779,"MEAN_ANOMALY":313.8741,"EPHEMERIS_TYPE":0,"CLASSIFICATION_TYPE":"U","NORAD_CAT_ID":67767,"ELEMENT_SET_NO":999,"REV_AT_EPOCH":508,"BSTAR":0.00070511,"MEAN_MOTION_DOT":0.00024464,"MEAN_MOTION_DDOT":0}]
